[{"OBJECT_NAME":"TIANQI-38","OBJECT_ID":"2026-010B","EPOCH":"2026-03-09T18:17:47.215392","MEAN_MOTION":13.991234,"ECCENTRICITY":0.00115193,"INCLINATION":44.9777,"RA_OF_ASC_NODE":163.9044,"ARG_OF_PERICENTER":223.2713,"MEAN_ANOMALY":136.7215,"EPHEMERIS_TYPE":0,"CLASSIFICATION_TYPE":"U","NORAD_CAT_ID":67477,"ELEMENT_SET_NO":999,"REV_AT_EPOCH":747,"BSTAR":0.00024396988,"MEAN_MOTION_DOT":2.27e-6,"MEAN_MOTION_DDOT":0},{"OBJECT_NAME":"DELTA 1 DEB","OBJECT_ID":"1978-026FB","EPOCH":"2026-03-08T19:09:27.415872","MEAN_MOTION":13.88893889,"ECCENTRICITY":0.02013796,"INCLINATION":98.8897,"RA_OF_ASC_NODE":10.6971,"ARG_OF_PERICENTER":230.9376,"MEAN_ANOMALY":184.6653,"EPHEMERIS_TYPE":0,"CLASSIFICATION_TYPE":"U","NORAD_CAT_ID":13564,"ELEMENT_SET_NO":999,"REV_AT_EPOCH":20681,"BSTAR":0.00038968274,"MEAN_MOTION_DOT":5.11e-6,"MEAN_MOTION_DDOT":0}]
